[
  {
    "OBJECT_NAME": "CUBESX-HSE 3 (RS42S)",
    "OBJECT_ID": "2023-091N",
    "EPOCH": "2025-05-04T04:37:16.980096",
    "MEAN_MOTION": 15.20006503,
    "ECCENTRICITY": 0.0015395,
    "INCLINATION": 97.5636,
    "RA_OF_ASC_NODE": 181.8231,
    "ARG_OF_PERICENTER": 91.8596,
    "MEAN_ANOMALY": 268.4402,
    "EPHEMERIS_TYPE": 0,
    "CLASSIFICATION_TYPE": "U",
    "NORAD_CAT_ID": 57178,
    "ELEMENT_SET_NO": 999,
    "REV_AT_EPOCH": 10208,
    "BSTAR": 0.00063026,
    "MEAN_MOTION_DOT": 0.00013563,
    "MEAN_MOTION_DDOT": 0
  },
  {
    "OBJECT_NAME": "MONITOR-3 (RS58S)",
    "OBJECT_ID": "2023-091Q",
    "EPOCH": "2025-05-04T04:20:45.688704",
    "MEAN_MOTION": 15.1844227,
    "ECCENTRICITY": 0.0015998,
    "INCLINATION": 97.563,
    "RA_OF_ASC_NODE": 181.1704,
    "ARG_OF_PERICENTER": 93.5624,
    "MEAN_ANOMALY": 266.744,
    "EPHEMERIS_TYPE": 0,
    "CLASSIFICATION_TYPE": "U",
    "NORAD_CAT_ID": 57180,
    "ELEMENT_SET_NO": 999,
    "REV_AT_EPOCH": 10204,
    "BSTAR": 0.00060006,
    "MEAN_MOTION_DOT": 0.00012339,
    "MEAN_MOTION_DDOT": 0
  },
  {
    "OBJECT_NAME": "MONITOR-4 (RS57S)",
    "OBJECT_ID": "2023-091S",
    "EPOCH": "2025-05-04T04:17:11.862528",
    "MEAN_MOTION": 15.18487438,
    "ECCENTRICITY": 0.0016028,
    "INCLINATION": 97.5625,
    "RA_OF_ASC_NODE": 181.126,
    "ARG_OF_PERICENTER": 94.1071,
    "MEAN_ANOMALY": 266.1995,
    "EPHEMERIS_TYPE": 0,
    "CLASSIFICATION_TYPE": "U",
    "NORAD_CAT_ID": 57182,
    "ELEMENT_SET_NO": 999,
    "REV_AT_EPOCH": 10204,
    "BSTAR": 0.00060307,
    "MEAN_MOTION_DOT": 0.00012417,
    "MEAN_MOTION_DDOT": 0
  },
  {
    "OBJECT_NAME": "MONITOR-2 (RS39S)",
    "OBJECT_ID": "2023-091U",
    "EPOCH": "2025-05-04T04:42:23.231808",
    "MEAN_MOTION": 15.14014032,
    "ECCENTRICITY": 0.0014203,
    "INCLINATION": 97.5634,
    "RA_OF_ASC_NODE": 180.0861,
    "ARG_OF_PERICENTER": 91.8099,
    "MEAN_ANOMALY": 268.4759,
    "EPHEMERIS_TYPE": 0,
    "CLASSIFICATION_TYPE": "U",
    "NORAD_CAT_ID": 57184,
    "ELEMENT_SET_NO": 999,
    "REV_AT_EPOCH": 10197,
    "BSTAR": 0.00037341,
    "MEAN_MOTION_DOT": 6.733e-05,
    "MEAN_MOTION_DDOT": 0
  },
  {
    "OBJECT_NAME": "SVYATOBOR 1 (RS60S)",
    "OBJECT_ID": "2023-091X",
    "EPOCH": "2025-05-04T03:31:12.344160",
    "MEAN_MOTION": 15.18362446,
    "ECCENTRICITY": 0.0012954,
    "INCLINATION": 97.5637,
    "RA_OF_ASC_NODE": 181.847,
    "ARG_OF_PERICENTER": 86.303,
    "MEAN_ANOMALY": 273.9684,
    "EPHEMERIS_TYPE": 0,
    "CLASSIFICATION_TYPE": "U",
    "NORAD_CAT_ID": 57187,
    "ELEMENT_SET_NO": 999,
    "REV_AT_EPOCH": 10208,
    "BSTAR": 0.00050681,
    "MEAN_MOTION_DOT": 0.00010372,
    "MEAN_MOTION_DDOT": 0
  },
  {
    "OBJECT_NAME": "VIZARD-METEO (RS38S)",
    "OBJECT_ID": "2023-091Z",
    "EPOCH": "2025-05-04T04:49:18.390720",
    "MEAN_MOTION": 15.2267376,
    "ECCENTRICITY": 0.0011205,
    "INCLINATION": 97.5622,
    "RA_OF_ASC_NODE": 183.543,
    "ARG_OF_PERICENTER": 81.476,
    "MEAN_ANOMALY": 278.7745,
    "EPHEMERIS_TYPE": 0,
    "CLASSIFICATION_TYPE": "U",
    "NORAD_CAT_ID": 57189,
    "ELEMENT_SET_NO": 999,
    "REV_AT_EPOCH": 10220,
    "BSTAR": 0.00065696,
    "MEAN_MOTION_DOT": 0.00015272,
    "MEAN_MOTION_DDOT": 0
  },
  {
    "OBJECT_NAME": "NANOZOND 1 (RS49S)",
    "OBJECT_ID": "2023-091AA",
    "EPOCH": "2025-05-04T04:53:56.867424",
    "MEAN_MOTION": 15.33776298,
    "ECCENTRICITY": 0.0007904,
    "INCLINATION": 97.5576,
    "RA_OF_ASC_NODE": 186.821,
    "ARG_OF_PERICENTER": 82.3498,
    "MEAN_ANOMALY": 277.8641,
    "EPHEMERIS_TYPE": 0,
    "CLASSIFICATION_TYPE": "U",
    "NORAD_CAT_ID": 57190,
    "ELEMENT_SET_NO": 999,
    "REV_AT_EPOCH": 10243,
    "BSTAR": 0.0010147,
    "MEAN_MOTION_DOT": 0.000332,
    "MEAN_MOTION_DDOT": 0
  },
  {
    "OBJECT_NAME": "POLYTECH-UNIVERSE 3 (RS46S)",
    "OBJECT_ID": "2023-091AB",
    "EPOCH": "2025-05-04T04:45:01.132128",
    "MEAN_MOTION": 15.1408323,
    "ECCENTRICITY": 0.0018998,
    "INCLINATION": 97.5605,
    "RA_OF_ASC_NODE": 179.6444,
    "ARG_OF_PERICENTER": 106.6136,
    "MEAN_ANOMALY": 253.7183,
    "EPHEMERIS_TYPE": 0,
    "CLASSIFICATION_TYPE": "U",
    "NORAD_CAT_ID": 57191,
    "ELEMENT_SET_NO": 999,
    "REV_AT_EPOCH": 10196,
    "BSTAR": 0.00038206,
    "MEAN_MOTION_DOT": 6.917e-05,
    "MEAN_MOTION_DDOT": 0
  },
  {
    "OBJECT_NAME": "UTMN 2 (RS27S)",
    "OBJECT_ID": "2023-091AP",
    "EPOCH": "2025-05-04T04:49:48.486432",
    "MEAN_MOTION": 15.21028753,
    "ECCENTRICITY": 0.0011795,
    "INCLINATION": 97.5623,
    "RA_OF_ASC_NODE": 182.9245,
    "ARG_OF_PERICENTER": 82.6257,
    "MEAN_ANOMALY": 277.6318,
    "EPHEMERIS_TYPE": 0,
    "CLASSIFICATION_TYPE": "U",
    "NORAD_CAT_ID": 57203,
    "ELEMENT_SET_NO": 999,
    "REV_AT_EPOCH": 10216,
    "BSTAR": 0.00057719,
    "MEAN_MOTION_DOT": 0.00012774,
    "MEAN_MOTION_DDOT": 0
  },
  {
    "OBJECT_NAME": "ARCCUBE 1 (RS25S)",
    "OBJECT_ID": "2023-091AR",
    "EPOCH": "2025-05-04T03:50:11.802048",
    "MEAN_MOTION": 15.42069007,
    "ECCENTRICITY": 0.0006402,
    "INCLINATION": 97.5495,
    "RA_OF_ASC_NODE": 188.4284,
    "ARG_OF_PERICENTER": 82.9687,
    "MEAN_ANOMALY": 277.2288,
    "EPHEMERIS_TYPE": 0,
    "CLASSIFICATION_TYPE": "U",
    "NORAD_CAT_ID": 57205,
    "ELEMENT_SET_NO": 999,
    "REV_AT_EPOCH": 10255,
    "BSTAR": 0.0012683,
    "MEAN_MOTION_DOT": 0.00054443,
    "MEAN_MOTION_DDOT": 0
  },
  {
    "OBJECT_NAME": "KUZGTU 1 (RS47S)",
    "OBJECT_ID": "2023-091AV",
    "EPOCH": "2025-05-04T04:54:53.010144",
    "MEAN_MOTION": 15.19430476,
    "ECCENTRICITY": 0.0015546,
    "INCLINATION": 97.5612,
    "RA_OF_ASC_NODE": 181.4338,
    "ARG_OF_PERICENTER": 93.4707,
    "MEAN_ANOMALY": 266.8305,
    "EPHEMERIS_TYPE": 0,
    "CLASSIFICATION_TYPE": "U",
    "NORAD_CAT_ID": 57217,
    "ELEMENT_SET_NO": 999,
    "REV_AT_EPOCH": 10207,
    "BSTAR": 0.00058785,
    "MEAN_MOTION_DOT": 0.00012435,
    "MEAN_MOTION_DDOT": 0
  },
  {
    "OBJECT_NAME": "SONATE-2",
    "OBJECT_ID": "2024-043Q",
    "EPOCH": "2025-05-03T20:41:30.505632",
    "MEAN_MOTION": 15.34489499,
    "ECCENTRICITY": 0.0010748,
    "INCLINATION": 97.5084,
    "RA_OF_ASC_NODE": 254.3503,
    "ARG_OF_PERICENTER": 240.616,
    "MEAN_ANOMALY": 119.401,
    "EPHEMERIS_TYPE": 0,
    "CLASSIFICATION_TYPE": "U",
    "NORAD_CAT_ID": 59112,
    "ELEMENT_SET_NO": 999,
    "REV_AT_EPOCH": 6470,
    "BSTAR": 0.00067281,
    "MEAN_MOTION_DOT": 0.00022475,
    "MEAN_MOTION_DDOT": 0
  },
  {
    "OBJECT_NAME": "MESAT1",
    "OBJECT_ID": "2024-125G",
    "EPOCH": "2025-05-03T13:23:21.474816",
    "MEAN_MOTION": 15.3477027,
    "ECCENTRICITY": 0.001762,
    "INCLINATION": 97.284,
    "RA_OF_ASC_NODE": 335.6174,
    "ARG_OF_PERICENTER": 269.4854,
    "MEAN_ANOMALY": 90.437,
    "EPHEMERIS_TYPE": 0,
    "CLASSIFICATION_TYPE": "U",
    "NORAD_CAT_ID": 60209,
    "ELEMENT_SET_NO": 999,
    "REV_AT_EPOCH": 4627,
    "BSTAR": 0.0007808,
    "MEAN_MOTION_DOT": 0.00026428,
    "MEAN_MOTION_DDOT": 0
  },
  {
    "OBJECT_NAME": "OOV-CUBE (TUBSAT-30)",
    "OBJECT_ID": "2024-128F",
    "EPOCH": "2025-05-03T16:03:35.374752",
    "MEAN_MOTION": 15.00045139,
    "ECCENTRICITY": 0.0048258,
    "INCLINATION": 61.9958,
    "RA_OF_ASC_NODE": 210.5452,
    "ARG_OF_PERICENTER": 45.9146,
    "MEAN_ANOMALY": 314.5899,
    "EPHEMERIS_TYPE": 0,
    "CLASSIFICATION_TYPE": "U",
    "NORAD_CAT_ID": 60240,
    "ELEMENT_SET_NO": 999,
    "REV_AT_EPOCH": 4462,
    "BSTAR": 0.00032869,
    "MEAN_MOTION_DOT": 4.005e-05,
    "MEAN_MOTION_DDOT": 0
  }
]