CUBESX-HSE 3 (RS42S)    
1 57178U 23091N   25124.19255764  .00013563  00000+0  63026-3 0  9993
2 57178  97.5636 181.8231 0015395  91.8596 268.4402 15.20006503102080
MONITOR-3 (RS58S)       
1 57180U 23091Q   25124.18108436  .00012339  00000+0  60006-3 0  9993
2 57180  97.5630 181.1704 0015998  93.5624 266.7440 15.18442270102046
MONITOR-4 (RS57S)       
1 57182U 23091S   25124.17860952  .00012417  00000+0  60307-3 0  9993
2 57182  97.5625 181.1260 0016028  94.1071 266.1995 15.18487438102041
MONITOR-2 (RS39S)       
1 57184U 23091U   25124.19610222  .00006733  00000+0  37341-3 0  9996
2 57184  97.5634 180.0861 0014203  91.8099 268.4759 15.14014032101971
SVYATOBOR 1 (RS60S)     
1 57187U 23091X   25124.14667065  .00010372  00000+0  50681-3 0  9997
2 57187  97.5637 181.8470 0012954  86.3030 273.9684 15.18362446102087
VIZARD-METEO (RS38S)    
1 57189U 23091Z   25124.20090730  .00015272  00000+0  65696-3 0  9991
2 57189  97.5622 183.5430 0011205  81.4760 278.7745 15.22673760102206
NANOZOND 1 (RS49S)      
1 57190U 23091AA  25124.20413041  .00033200  00000+0  10147-2 0  9998
2 57190  97.5576 186.8210 0007904  82.3498 277.8641 15.33776298102439
POLYTECH-UNIVERSE 3 (R*)
1 57191U 23091AB  25124.19792977  .00006917  00000+0  38206-3 0  9997
2 57191  97.5605 179.6444 0018998 106.6136 253.7183 15.14083230101963
UTMN 2 (RS27S)          
1 57203U 23091AP  25124.20125563  .00012774  00000+0  57719-3 0  9992
2 57203  97.5623 182.9245 0011795  82.6257 277.6318 15.21028753102163
ARCCUBE 1 (RS25S)       
1 57205U 23091AR  25124.15985882  .00054443  00000+0  12683-2 0  9995
2 57205  97.5495 188.4284 0006402  82.9687 277.2288 15.42069007102550
KUZGTU 1 (RS47S)        
1 57217U 23091AV  25124.20478021  .00012435  00000+0  58785-3 0  9995
2 57217  97.5612 181.4338 0015546  93.4707 266.8305 15.19430476102073
SONATE-2                
1 59112U 24043Q   25123.86215863  .00022475  00000+0  67281-3 0  9999
2 59112  97.5084 254.3503 0010748 240.6160 119.4010 15.34489499 64703
MESAT1                  
1 60209U 24125G   25123.55788744  .00026428  00000+0  78080-3 0  9999
2 60209  97.2840 335.6174 0017620 269.4854  90.4370 15.34770270 46270
OOV-CUBE (TUBSAT-30)    
1 60240U 24128F   25123.66915943  .00004005  00000+0  32869-3 0  9994
2 60240  61.9958 210.5452 0048258  45.9146 314.5899 15.00045139 44620
